NORAD_CAT_ID,OBJECT_NAME,OBJECT_TYPE,EPOCH,MEAN_MOTION,ECCENTRICITY,INCLINATION,RA_OF_ASC_NODE,ARG_OF_PERICENTER,MEAN_ANOMALY,BSTAR,MEAN_MOTION_DOT,MEAN_MOTION_DDOT,TLE_LINE0,TLE_LINE1,TLE_LINE2,SEMIMAJOR_AXIS,PERIOD,APOGEE,PERIGEE,DECAYED
52705.0,STARLINK-3844,PAYLOAD,2023-03-25 19:59:03,15.08796358,0.0001381,53.2148,301.7844,75.2737,284.8408,6.7471e-05,7.85e-06,0.0,0 STARLINK-3844,1 52705U 22053BB  23084.83268406  .00000785  00000-0  67471-4 0  9994,2 52705  53.2148 301.7844 0001381  75.2737 284.8408 15.08796358 47866,6918.014,95.44,540.834,538.923,0.0
52705.0,STARLINK-3844,PAYLOAD,2023-03-25 21:34:27,15.08790942,0.0001489,53.215,301.4858,92.7597,267.3565,0.00033753,5.081e-05,0.0,0 STARLINK-3844,1 52705U 22053BB  23084.89892586  .00005081  00000-0  33753-3 0  9991,2 52705  53.2150 301.4858 0001489  92.7597 267.3565 15.08790942 48301,6918.03,95.441,540.925,538.865,0.0
52705.0,STARLINK-3844,PAYLOAD,2023-03-26 19:49:52,15.08826202,0.0001389,53.2147,297.3215,81.4444,278.6705,0.0013958,0.00021988,0.0,0 STARLINK-3844,1 52705U 22053BB  23085.82630612  .00021988  00000-0  13958-2 0  9993,2 52705  53.2147 297.3215 0001389  81.4444 278.6705 15.08826202 48010,6917.923,95.438,540.748,538.827,0.0
52705.0,STARLINK-3844,PAYLOAD,2023-03-26 21:25:16,15.0882658,0.000137,53.2146,297.0238,78.644,281.4706,0.0011845,0.00018607,0.0,0 STARLINK-3844,1 52705U 22053BB  23085.89254648  .00018607  00000-0  11845-2 0  9998,2 52705  53.2146 297.0238 0001370  78.6440 281.4706 15.08826580 48455,6917.921,95.438,540.734,538.839,0.0
52705.0,STARLINK-3844,PAYLOAD,2023-03-27 00:36:02,15.08838084,0.0001384,53.2148,296.4295,79.9538,280.161,0.0015975,0.00025226,0.0,0 STARLINK-3844,1 52705U 22053BB  23086.02502685  .00025226  00000-0  15975-2 0  9994,2 52705  53.2148 296.4295 0001384  79.9538 280.1610 15.08838084 48474,6917.886,95.438,540.709,538.794,0.0
52705.0,STARLINK-3844,PAYLOAD,2023-03-27 21:16:02,15.088552,0.0001362,53.2144,292.5624,78.5303,281.5842,0.00099021,0.00015513,0.0,0 STARLINK-3844,1 52705U 22053BB  23086.88614538  .00015513  00000-0  99021-3 0  9992,2 52705  53.2144 292.5624 0001362  78.5303 281.5842 15.08855200 48172,6917.834,95.437,540.641,538.757,0.0
52705.0,STARLINK-3844,PAYLOAD,2023-03-28 00:26:49,15.08859989,0.0001358,53.2143,291.9676,78.5213,281.5932,0.001042,0.00016343,0.0,0 STARLINK-3844,1 52705U 22053BB  23087.01862380  .00016343  00000-0  10420-2 0  9995,2 52705  53.2143 291.9676 0001358  78.5213 281.5932 15.08859989 48624,6917.819,95.436,540.624,538.745,0.0
52705.0,STARLINK-3844,PAYLOAD,2023-03-28 21:06:49,15.0885326,0.0001524,53.2159,288.0999,72.9779,287.138,0.0004471,6.837e-05,0.0,0 STARLINK-3844,1 52705U 22053BB  23087.87974269  .00006837  00000-0  44710-3 0  9996,2 52705  53.2159 288.0999 0001524  72.9779 287.1380 15.08853260 48328,6917.84,95.437,540.759,538.651,0.0
52705.0,STARLINK-3844,PAYLOAD,2023-03-29 19:22:13,15.08843184,0.0001454,53.2156,283.9381,78.0583,282.0572,0.00029127,4.351e-05,0.0,0 STARLINK-3844,1 52705U 22053BB  23088.80710560  .00004351  00000-0  29127-3 0  9996,2 52705  53.2156 283.9381 0001454  78.0583 282.0572 15.08843184 48462,6917.871,95.437,540.742,538.73,0.0
52705.0,STARLINK-3844,PAYLOAD,2023-03-30 19:13:00,15.08852645,0.0001265,53.2156,279.4776,73.4452,286.6679,0.00079117,0.0001233,0.0,0 STARLINK-3844,1 52705U 22053BB  23089.80070246  .00012330  00000-0  79117-3 0  9997,2 52705  53.2156 279.4776 0001265  73.4452 286.6679 15.08852645 49049,6917.842,95.437,540.582,538.832,0.0
52705.0,STARLINK-3844,PAYLOAD,2023-03-30 22:23:46,15.08859348,0.0001257,53.2156,278.8825,76.0499,284.0633,0.001032,0.00016183,0.0,0 STARLINK-3844,1 52705U 22053BB  23089.93318103  .00016183  00000-0  10320-2 0  9998,2 52705  53.2156 278.8825 0001257  76.0499 284.0633 15.08859348 48631,6917.821,95.436,540.556,538.817,0.0
52705.0,STARLINK-3844,PAYLOAD,2023-03-31 12:42:15,15.08847373,0.000102,53.2161,276.2065,94.7751,265.3358,0.00032164,4.836e-05,0.0,0 STARLINK-3844,1 52705U 22053BB  23090.52934213  .00004836  00000-0  32164-3 0  9994,2 52705  53.2161 276.2065 0001020  94.7751 265.3358 15.08847373 48722,6917.858,95.437,540.428,539.017,0.0
52705.0,STARLINK-3844,PAYLOAD,2023-04-01 12:33:02,15.08837162,0.0001361,53.2161,271.7491,78.3281,281.7864,1.0929e-08,-2.88e-06,0.0,0 STARLINK-3844,1 52705U 22053BB  23091.52294765 -.00000288  00000-0  10929-7 0  9993,2 52705  53.2161 271.7491 0001361  78.3281 281.7864 15.08837162 48874,6917.889,95.438,540.696,538.813,0.0
52705.0,STARLINK-3844,PAYLOAD,2023-04-01 18:54:35,15.08840085,0.0001223,53.2163,270.5598,87.8137,272.2995,9.2868e-05,1.19e-05,0.0,0 STARLINK-3844,1 52705U 22053BB  23091.78790750  .00001190  00000-0  92868-4 0  9997,2 52705  53.2163 270.5598 0001223  87.8137 272.2995 15.08840085 49344,6917.88,95.438,540.591,538.899,0.0
52705.0,STARLINK-3844,PAYLOAD,2023-04-02 12:23:49,15.08841848,0.0001167,53.2164,267.2886,98.5261,261.5863,0.00029591,4.425e-05,0.0,0 STARLINK-3844,1 52705U 22053BB  23092.51654809  .00004425  00000-0  29591-3 0  9999,2 52705  53.2164 267.2886 0001167  98.5261 261.5863 15.08841848 49457,6917.875,95.437,540.547,538.932,0.0
52705.0,STARLINK-3844,PAYLOAD,2023-04-02 15:34:35,15.08843598,0.0001165,53.2166,266.6942,96.335,263.7775,0.00025744,3.812e-05,0.0,0 STARLINK-3844,1 52705U 22053BB  23092.64902746  .00003812  00000-0  25744-3 0  9994,2 52705  53.2166 266.6942 0001165  96.3350 263.7775 15.08843598 49043,6917.869,95.437,540.54,538.928,0.0
52705.0,STARLINK-3844,PAYLOAD,2023-04-03 12:14:36,15.08837331,8.61e-05,53.2164,262.8275,98.8817,261.2273,-3.1526e-05,-7.89e-06,0.0,0 STARLINK-3844,1 52705U 22053BB  23093.51014980 -.00000789  00000-0 -31526-4 0  9993,2 52705  53.2164 262.8275 0000861  98.8817 261.2273 15.08837331 49173,6917.889,95.438,540.349,539.158,0.0
52705.0,STARLINK-3844,PAYLOAD,2023-04-03 20:11:32,15.08840476,0.0001188,53.2152,261.3391,95.8123,264.3005,0.00016307,2.308e-05,0.0,0 STARLINK-3844,1 52705U 22053BB  23093.84135059  .00002308  00000-0  16307-3 0  9996,2 52705  53.2152 261.3391 0001188  95.8123 264.3005 15.08840476 49657,6917.879,95.438,540.566,538.922,0.0
52705.0,STARLINK-3844,PAYLOAD,2023-04-04 12:05:24,15.08834024,7.8e-05,53.2171,258.3664,89.8035,270.3047,8.4329e-05,1.054e-05,0.0,0 STARLINK-3844,1 52705U 22053BB  23094.50375456  .00001054  00000-0  84329-4 0  9994,2 52705  53.2171 258.3664 0000780  89.8035 270.3047 15.08834024 49755,6917.899,95.438,540.303,539.224,0.0
52705.0,STARLINK-3844,PAYLOAD,2023-04-05 10:20:48,15.08838547,0.0001329,53.2172,254.2029,85.2295,274.8849,0.00023043,3.381e-05,0.0,0 STARLINK-3844,1 52705U 22053BB  23095.43111598  .00003381  00000-0  23043-3 0  9992,2 52705  53.2172 254.2029 0001329  85.2295 274.8849 15.08838547 49465,6917.885,95.438,540.669,538.83,0.0
52705.0,STARLINK-3844,PAYLOAD,2023-04-05 16:42:21,15.08837257,0.0001349,53.2162,253.0131,82.9284,277.1861,0.00033516,5.05e-05,0.0,0 STARLINK-3844,1 52705U 22053BB  23095.69607714  .00005050  00000-0  33516-3 0  9991,2 52705  53.2162 253.0131 0001349  82.9284 277.1861 15.08837257 49938,6917.889,95.438,540.687,538.821,0.0
52705.0,STARLINK-3844,PAYLOAD,2023-04-06 10:11:35,15.08841165,0.0001341,53.2159,249.7425,77.4642,282.65,0.00011025,1.467e-05,0.0,0 STARLINK-3844,1 52705U 22053BB  23096.42471478  .00001467  00000-0  11025-3 0  9998,2 52705  53.2159 249.7425 0001341  77.4642 282.6500 15.08841165 50049,6917.877,95.437,540.67,538.814,0.0
52705.0,STARLINK-3844,PAYLOAD,2023-04-06 19:43:53,15.08848085,0.000137,53.2154,247.9583,77.6554,282.4591,2.9183e-05,1.77e-06,0.0,0 STARLINK-3844,1 52705U 22053BB  23096.82215025  .00000177  00000-0  29183-4 0  9998,2 52705  53.2154 247.9583 0001370  77.6554 282.4591 15.08848085 49678,6917.856,95.437,540.668,538.773,0.0
52705.0,STARLINK-3844,PAYLOAD,2023-04-07 03:40:49,15.08842988,0.0001651,53.2144,246.4736,55.7598,304.355,7.2118e-05,8.6e-06,0.0,0 STARLINK-3844,1 52705U 22053BB  23097.15335428  .00000860  00000-0  72118-4 0  9990,2 52705  53.2144 246.4736 0001651  55.7598 304.3550 15.08842988 49729,6917.871,95.437,540.878,538.594,0.0
52705.0,STARLINK-3844,PAYLOAD,2023-04-07 10:02:22,15.08840895,0.0001631,53.2144,245.2835,60.7939,299.3216,3.6341e-05,2.9e-06,0.0,0 STARLINK-3844,1 52705U 22053BB  23097.41831517  .00000290  00000-0  36341-4 0  9994,2 52705  53.2144 245.2835 0001631  60.7939 299.3216 15.08840895 50199,6917.878,95.437,540.871,538.614,0.0
52705.0,STARLINK-3844,PAYLOAD,2023-04-08 09:53:09,15.08834434,0.0001248,53.215,240.8208,85.9434,274.1701,1.4217e-05,-6.2e-07,0.0,0 STARLINK-3844,1 52705U 22053BB  23098.41191949 -.00000062  00000-0  14217-4 0  9999,2 52705  53.2150 240.8208 0001248  85.9434 274.1701 15.08834434 49914,6917.897,95.438,540.626,538.899,0.0
52705.0,STARLINK-3844,PAYLOAD,2023-04-08 13:03:55,15.08836108,0.0001223,53.2163,240.2261,93.9853,266.1279,6.3111e-05,7.17e-06,0.0,0 STARLINK-3844,1 52705U 22053BB  23098.54439730  .00000717  00000-0  63111-4 0  9999,2 52705  53.2163 240.2261 0001223  93.9853 266.1279 15.08836108 50360,6917.892,95.438,540.603,538.911,0.0
52705.0,STARLINK-3844,PAYLOAD,2023-04-08 16:14:41,15.08841188,0.0001079,53.2163,239.6319,83.8553,276.2562,0.00010571,1.395e-05,0.0,0 STARLINK-3844,1 52705U 22053BB  23098.67687366  .00001395  00000-0  10571-3 0  9997,2 52705  53.2163 239.6319 0001079  83.8553 276.2562 15.08841188 49954,6917.877,95.437,540.488,538.995,0.0
52705.0,STARLINK-3844,PAYLOAD,2023-04-09 08:08:33,15.08836774,0.0001088,53.2169,236.6594,85.5026,274.609,9.2348e-05,1.182e-05,0.0,0 STARLINK-3844,1 52705U 22053BB  23099.33927768  .00001182  00000-0  92348-4 0  9991,2 52705  53.2169 236.6594 0001088  85.5026 274.6090 15.08836774 50052,6917.89,95.438,540.508,539.003,0.0
52705.0,STARLINK-3844,PAYLOAD,2023-04-09 16:05:29,15.08838111,9.7e-05,53.2177,235.1734,87.4361,272.6742,0.00013723,1.897e-05,0.0,0 STARLINK-3844,1 52705U 22053BB  23099.67047601  .00001897  00000-0  13723-3 0  9999,2 52705  53.2177 235.1734 0000970  87.4361 272.6742 15.08838111 50535,6917.886,95.438,540.422,539.08,0.0
